[{"OBJECT_NAME":"OBJECT E","OBJECT_ID":"2024-174E","EPOCH":"2026-03-09T23:40:24.424320","MEAN_MOTION":15.26241811,"ECCENTRICITY":0.00122518,"INCLINATION":97.4515,"RA_OF_ASC_NODE":80.1669,"ARG_OF_PERICENTER":217.7524,"MEAN_ANOMALY":142.2856,"EPHEMERIS_TYPE":0,"CLASSIFICATION_TYPE":"U","NORAD_CAT_ID":61242,"ELEMENT_SET_NO":999,"REV_AT_EPOCH":8070,"BSTAR":0.00031155901,"MEAN_MOTION_DOT":8.013e-5,"MEAN_MOTION_DDOT":0},{"OBJECT_NAME":"STARLINK-34011","OBJECT_ID":"2025-093K","EPOCH":"2026-03-09T23:47:00.258144","MEAN_MOTION":15.27576868,"ECCENTRICITY":7.618e-5,"INCLINATION":42.9996,"RA_OF_ASC_NODE":76.6048,"ARG_OF_PERICENTER":326.9724,"MEAN_ANOMALY":33.108,"EPHEMERIS_TYPE":0,"CLASSIFICATION_TYPE":"U","NORAD_CAT_ID":63845,"ELEMENT_SET_NO":999,"REV_AT_EPOCH":4779,"BSTAR":0.0012365296,"MEAN_MOTION_DOT":0.00033918,"MEAN_MOTION_DDOT":0}]
